CCSDS_OMM_VERS,COMMENT,CREATION_DATE,ORIGINATOR,OBJECT_NAME,OBJECT_ID,CENTER_NAME,REF_FRAME,TIME_SYSTEM,MEAN_ELEMENT_THEORY,EPOCH,MEAN_MOTION,ECCENTRICITY,INCLINATION,RA_OF_ASC_NODE,ARG_OF_PERICENTER,MEAN_ANOMALY,EPHEMERIS_TYPE,CLASSIFICATION_TYPE,NORAD_CAT_ID,ELEMENT_SET_NO,REV_AT_EPOCH,BSTAR,MEAN_MOTION_DOT,MEAN_MOTION_DDOT,SEMIMAJOR_AXIS,PERIOD,APOAPSIS,PERIAPSIS,OBJECT_TYPE,RCS_SIZE,COUNTRY_CODE,LAUNCH_DATE,SITE,DECAY_DATE,FILE,GP_ID,TLE_LINE0,TLE_LINE1,TLE_LINE2
3.0,GENERATED VIA SPACE-TRACK.ORG API,2005-05-02T23:37:16,18 SPCS,ARIANE 1 DEB,1986-019QS,EARTH,TEME,UTC,SGP4,1988-12-10T22:54:41.203584,14.75097478,0.0123175,98.1159,330.8953,50.1695,311.0482,0,U,18195,999,8452,0.2337,0.01782619,0.0,7022.983,97.62,731.353,558.342,DEBRIS,SMALL,FR,1986-02-22,FRGUI,1988-12-10,130984,43209727,0 ARIANE 1 DEB,1 18195U 86019 QS 88345.95464356  .01782619 +00000-0 +0233701 0  9997,2 18195 098.1159 330.8953 0123175 050.1695 311.0482 14.75097478084525
3.0,GENERATED VIA SPACE-TRACK.ORG API,2005-05-02T23:37:16,18 SPCS,ARIANE 1 DEB,1986-019CL,EARTH,TEME,UTC,SGP4,1988-12-07T08:58:08.771231,14.99367318,0.0054379,99.2561,116.6609,320.0328,39.8511,0,U,17238,999,10771,0.1991,0.02513141,0.0,6946.991,96.04,606.633,531.079,DEBRIS,SMALL,FR,1986-02-22,FRGUI,1988-12-21,130984,43145227,0 ARIANE 1 DEB,1 17238U 86019 CL 88342.37371263  .02513141 +00000-0 +0199101 0  9999,2 17238 099.2561 116.6609 0054379 320.0328 039.8511 14.99367318107714
3.0,GENERATED VIA SPACE-TRACK.ORG API,2005-04-29T09:12:45,18 SPCS,ARIANE 1 DEB,1986-019DY,EARTH,TEME,UTC,SGP4,1990-02-28T10:54:19.085184,15.83758011,0.0031736,97.7859,25.1495,127.9829,233.0429,0,U,17351,999,17057,0.1101,0.25164582,0.0,6697.965,90.922,341.087,298.573,DEBRIS,SMALL,FR,1986-02-22,FRGUI,1990-02-28,131174,44894384,0 ARIANE 1 DEB,1 17351U 86019 DY 90059.45438756  .25164582 +00000-0 +0110101 0  9992,2 17351 097.7859 025.1495 0031736 127.9829 233.0429 15.83758011170570
3.0,GENERATED VIA SPACE-TRACK.ORG API,2017-02-10T14:20:50,18 SPCS,FENGYUN 1C DEB,1999-025AZZ,EARTH,TEME,UTC,SGP4,2017-02-10T10:22:23.603232,16.29561832,0.0006889,98.9176,219.0285,338.9486,21.1518,0,U,30935,999,54355,0.0013773,0.05783119,3.3962e-06,6571.854,88.367,198.246,189.192,DEBRIS,SMALL,PRC,1999-05-10,TSC,2017-02-11,2149810,109820380,0 FENGYUN 1C DEB,1 30935U 99025AZZ 17041.43221763  .05783119  33962-5  13773-2 0  9991,2 30935  98.9176 219.0285 0006889 338.9486  21.1518 16.29561832543554
3.0,GENERATED VIA SPACE-TRACK.ORG API,2024-01-19T11:46:15,18 SPCS,FIREFLY ALPHA R/B,2023-202B,EARTH,TEME,UTC,SGP4,2024-01-19T08:17:17.954016,16.39719526,0.0034137,140.0067,178.051,14.2187,53.427,0,U,58617,999,438,0.00053359,0.14256913,-1.1367e-05,6544.686,87.82,188.892,144.209,ROCKET BODY,LARGE,US,2023-12-22,AFWTR,2024-01-19,4165846,247317922,0 FIREFLY ALPHA R/B,1 58617U 23202B   24019.34534669  .14256913 -11367-4  53359-3 0  9994,2 58617 140.0067 178.0510 0034137  14.2187  53.4270 16.39719526  4385
3.0,GENERATED VIA SPACE-TRACK.ORG API,2009-04-15T11:42:10,18 SPCS,IRIDIUM 33 DEB,1997-051KS,EARTH,TEME,UTC,SGP4,2009-04-15T10:10:38.738208,15.22745701,0.0159881,86.286,91.1687,102.4516,351.8393,0,U,34695,999,830,0.075117,0.02778908,0.0,6875.704,94.566,607.498,387.639,DEBRIS,SMALL,US,1997-09-14,TTMTR,2009-04-18,701421,70791963,0 IRIDIUM 33 DEB,1 34695U 97051KS  09105.42405947  .02778908  00000-0  75117-1 0  9992,2 34695 086.2860 091.1687 0159881 102.4516 351.8393 15.22745701  8309
3.0,GENERATED VIA SPACE-TRACK.ORG API,2013-12-14T17:43:54,18 SPCS,FENGYUN 1C DEB,1999-025BHF,EARTH,TEME,UTC,SGP4,2013-12-13T09:02:56.876351,15.58384289,0.0076472,99.0866,43.9958,165.7143,194.6335,0,U,31153,999,36164,0.0021383,0.00190087,0.0,6770.474,92.403,444.114,340.563,DEBRIS,SMALL,PRC,1999-05-10,TSC,2013-12-14,1598183,94615250,0 FENGYUN 1C DEB,1 31153U 99025BHF 13347.37704718  .00190087  00000-0  21383-2 0  9997,2 31153 099.0866 043.9958 0076472 165.7143 194.6335 15.58384289361648
3.0,GENERATED VIA SPACE-TRACK.ORG API,2004-08-16T23:15:56,18 SPCS,SL-12 PLAT,1982-100C,EARTH,TEME,UTC,SGP4,1982-10-13T02:32:01.001760,16.45313263,0.001659,51.6375,251.9227,91.4444,274.3565,0,U,13605,999,8,0.0,-8.143e-05,6.184e-07,6529.847,87.521,162.545,140.879,DEBRIS,,,,,1982-10-13,34345,12923814,0 SL-12 PLAT,1 13605U 82100  C 82286.10556715 -.00008143 +06184-5 +00000-0 0  9993,2 13605 051.6375 251.9227 0016590 091.4444 274.3565 16.45313263000083
3.0,GENERATED VIA SPACE-TRACK.ORG API,2021-10-20T02:17:46,18 SPCS,SWAMPSAT-2,2019-071E,EARTH,TEME,UTC,SGP4,2021-10-19T14:28:45.683328,16.36852634,0.0009565,51.6083,106.0375,299.5371,60.47,0,U,45115,999,9689,0.0019698,0.19123998,1.2391e-05,6552.325,87.974,180.458,167.923,PAYLOAD,MEDIUM,US,2019-11-02,WLPIS,2021-10-19,3172644,187628163,0 SWAMPSAT-2,1 45115U 19071E   21292.60330652  .19123998  12391-4  19698-2 0  9992,2 45115  51.6083 106.0375 0009565 299.5371  60.4700 16.36852634 96897
3.0,GENERATED VIA SPACE-TRACK.ORG API,2010-07-27T15:02:08,18 SPCS,BREEZE-M DEB,2009-042BN,EARTH,TEME,UTC,SGP4,2010-07-25T18:58:56.599103,15.13229132,0.0257878,48.804,3.8523,265.8697,80.937,0,U,36817,999,313,0.21126,0.1050819,0.0,6904.501,95.16,704.418,348.314,DEBRIS,,CIS,2009-08-11,TTMTR,2010-07-27,935352,78825326,0 BREEZE-M DEB,1 36817U 09042BN  10206.79093286  .10508190  00000-0  21126+0 0  9998,2 36817 048.8040 003.8523 0257878 265.8697 080.9370 15.13229132  3135
3.0,GENERATED VIA SPACE-TRACK.ORG API,2024-02-12T07:16:15,18 SPCS,CZ-2F R/B,2022-093B,EARTH,TEME,UTC,SGP4,2024-02-12T06:52:08.385888,16.56175429,0.0011317,49.9535,171.5777,259.1967,187.6034,0,U,53358,999,8651,0.0001,0.23899922,1.267e-05,6501.261,86.947,130.484,115.769,ROCKET BODY,LARGE,PRC,2022-08-04,JSC,2024-02-12,4186176,249063783,0 CZ-2F R/B,1 53358U 22093B   24043.28620817  .23899922  12670-4  10000-3 0  9995,2 53358  49.9535 171.5777 0011317 259.1967 187.6034 16.56175429 86513
3.0,GENERATED VIA SPACE-TRACK.ORG API,2004-08-16T23:23:02,18 SPCS,COSMOS 1645,1985-029A,EARTH,TEME,UTC,SGP4,1985-04-28T20:04:42.402432,15.92180191,0.0123672,62.828,6.7142,114.0688,247.3757,0,U,15645,999,193,0.00013552,0.00094293,9.0359e-06,6674.324,90.442,378.732,213.646,PAYLOAD,MEDIUM,CIS,1985-04-16,PKMTR,1985-04-29,34487,14453261,0 COSMOS 1645,1 15645U 85029  A 85118.83660188  .00094293 +90359-5 +13552-3 0  9995,2 15645 062.8280 006.7142 0123672 114.0688 247.3757 15.92180191001933
3.0,GENERATED VIA SPACE-TRACK.ORG API,2021-05-24T18:55:49,18 SPCS,COSMOS 1275 DEB,1981-053FB,EARTH,TEME,UTC,SGP4,2021-05-24T08:51:18.181152,16.32073157,0.001483,82.8155,214.3512,284.3339,75.631,0,U,13455,999,4831,0.0044631,0.24390215,-1.2843e-06,6565.111,88.231,196.712,177.24,DEBRIS,SMALL,CIS,1981-06-04,PKMTR,2021-05-24,3041973,177782451,0 COSMOS 1275 DEB,1 13455U 81053FB  21144.36896043  .24390215 -12843-5  44631-2 0  9996,2 13455  82.8155 214.3512 0014830 284.3339  75.6310 16.32073157 48318
3.0,GENERATED VIA SPACE-TRACK.ORG API,2008-08-13T16:56:03,18 SPCS,COSMOS 2421 DEB,2006-026RW,EARTH,TEME,UTC,SGP4,2008-08-13T16:53:31.690463,15.97565525,0.0018223,64.9413,247.0237,253.456,106.2594,0,U,33248,999,491,0.0081997,0.03180342,0.012107,6659.316,90.137,293.316,269.046,DEBRIS,,CIS,2006-06-25,,2008-08-14,591978,67505056,0 COSMOS 2421 DEB,1 33248U 06026RW  08226.70383901  .03180342  12107-1  81997-2 0  9992,2 33248 064.9413 247.0237 0018223 253.4560 106.2594 15.97565525  4916
3.0,GENERATED VIA SPACE-TRACK.ORG API,2008-07-04T00:23:26,18 SPCS,COSMOS 2421 DEB,2006-026GK,EARTH,TEME,UTC,SGP4,2008-07-03T22:14:58.706303,16.09360382,0.0022634,65.0401,22.6334,265.1849,95.1227,0,U,32932,999,859,0.0036444,0.02806574,0.012814,6626.739,89.476,263.603,233.605,DEBRIS,SMALL,CIS,2006-06-25,TTMTR,2008-07-06,574330,66958791,0 COSMOS 2421 DEB,1 32932U 06026GK  08185.92706836  .02806574  12814-1  36444-2 0  9998,2 32932 065.0401 022.6334 0022634 265.1849 095.1227 16.09360382  8595
3.0,GENERATED VIA SPACE-TRACK.ORG API,2004-08-16T23:25:02,18 SPCS,MOLNIYA 1-35,1976-074A,EARTH,TEME,UTC,SGP4,1987-05-13T21:26:42.813312,2.95930337,0.6825861,63.4253,6.5739,257.226,24.2898,0,U,9049,999,7888,9.9999e-05,0.00076982,-2.8702e-05,20493.169,486.601,28103.386,126.681,PAYLOAD,LARGE,CIS,1976-07-23,TTMTR,1987-05-30,34527,15268662,0 MOLNIYA 1-35,1 09049U 76074  A 87133.89355108  .00076982 -28702-4 +99999-4 0  9992,2 09049 063.4253 006.5739 6825861 257.2260 024.2898 02.95930337078882
3.0,GENERATED VIA SPACE-TRACK.ORG API,2004-08-17T14:44:45,18 SPCS,COSMOS 2055 DEB,1990-003E,EARTH,TEME,UTC,SGP4,1990-02-02T23:14:56.114592,16.48735103,0.0006312,62.8151,222.5869,134.7951,225.5765,0,U,20462,999,265,0.00017348,0.12446933,4.382e-05,6520.809,87.339,146.79,138.558,DEBRIS,,,,,1990-02-03,34744,17839253,0 COSMOS 2055 DEB,1 20462U 90003  E 90033.96870503  .12446933 +43820-4 +17348-3 0  9998,2 20462 062.8151 222.5869 0006312 134.7951 225.5765 16.48735103002658
3.0,GENERATED VIA SPACE-TRACK.ORG API,2010-05-25T18:16:56,18 SPCS,DELTA 4 DEB,2006-050R,EARTH,TEME,UTC,SGP4,2010-05-25T01:18:15.063264,16.28798585,0.0026052,99.2027,266.679,217.5243,171.193,0,U,29551,999,18876,0.027056,0.99999999,3.337e-06,6573.911,88.408,212.903,178.65,DEBRIS,SMALL,US,2006-11-04,AFWTR,2010-05-25,902474,77923877,0 DELTA 4 DEB,1 29551U 06050R   10145.05434101  .99999999  33370-5  27056-1 0  9996,2 29551 099.2027 266.6790 0026052 217.5243 171.1930 16.28798585188769
3.0,GENERATED VIA SPACE-TRACK.ORG API,2004-08-15T23:39:44,18 SPCS,SL-4 R/B,1976-002B,EARTH,TEME,UTC,SGP4,1976-01-14T17:30:39.577536,16.5253027,0.0004074,62.7522,261.5871,76.2044,283.953,0,U,8552,999,115,0.0,0.03766528,0.0,6510.822,87.139,135.339,130.034,ROCKET BODY,,,,,1976-01-14,33993,9752895,0 SL-4 R/B,1 08552U 76002  B 76014.72962474  .03766528 +00000-0 +00000-0 0  9991,2 08552 062.7522 261.5871 0004074 076.2044 283.9530 16.52530270001152
